{
  "type": "FeatureCollection",
  "features": [
    {
      "type": "Feature",
      "properties": {
        "norad_id": 42988,
        "name": "SKYSAT-C10",
        "group": "resource",
        "lat": -50.394777289337455,
        "lon": -69.35118556032103,
        "alt_km": 479.0080846580804,
        "timestamp": "2025-12-14T20:40:31.425402+00:00",
        "meta_object_name": "SKYSAT-C10",
        "meta_object_id": "2017-068B",
        "meta_epoch": "2025-12-14T07:07:52.470048",
        "meta_mean_motion": 15.32107313,
        "meta_eccentricity": 0.00054039,
        "meta_inclination": 97.4254,
        "meta_ra_of_asc_node": 119.1519,
        "meta_arg_of_pericenter": 99.1734,
        "meta_mean_anomaly": 261.0119,
        "meta_ephemeris_type": 0,
        "meta_classification_type": "U",
        "meta_norad_cat_id": 42988,
        "meta_element_set_no": 999,
        "meta_rev_at_epoch": 45403,
        "meta_bstar": 0.00040527085,
        "meta_mean_motion_dot": 0.00012497,
        "meta_mean_motion_ddot": 0,
        "tle_line1": "1 42988U 17068B   25348.29713507  .00012497  00000+0  40527-3 0  9992",
        "tle_line2": "2 42988  97.4254 119.1519 0005403  99.1734 261.0119 15.32107313454038"
      },
      "geometry": {
        "type": "Point",
        "coordinates": [
          -69.35118556032103,
          -50.394777289337455
        ]
      }
    },
    {
      "type": "Feature",
      "properties": {
        "norad_id": 42989,
        "name": "SKYSAT-C9",
        "group": "resource",
        "lat": 69.7010844126387,
        "lon": -40.24345654774947,
        "alt_km": 444.46523875828734,
        "timestamp": "2025-12-14T20:40:31.425412+00:00",
        "meta_object_name": "SKYSAT-C9",
        "meta_object_id": "2017-068C",
        "meta_epoch": "2025-12-14T07:41:47.572800",
        "meta_mean_motion": 15.36103456,
        "meta_eccentricity": 0.00106399,
        "meta_inclination": 97.4183,
        "meta_ra_of_asc_node": 118.5865,
        "meta_arg_of_pericenter": 82.3903,
        "meta_mean_anomaly": 277.8549,
        "meta_ephemeris_type": 0,
        "meta_classification_type": "U",
        "meta_norad_cat_id": 42989,
        "meta_element_set_no": 999,
        "meta_rev_at_epoch": 45432,
        "meta_bstar": 0.00043035623,
        "meta_mean_motion_dot": 0.00015092,
        "meta_mean_motion_ddot": 0,
        "tle_line1": "1 42989U 17068C   25348.32068950  .00015092  00000+0  43036-3 0  9994",
        "tle_line2": "2 42989  97.4183 118.5865 0010639  82.3903 277.8549 15.36103456454328"
      },
      "geometry": {
        "type": "Point",
        "coordinates": [
          -40.24345654774947,
          69.7010844126387
        ]
      }
    },
    {
      "type": "Feature",
      "properties": {
        "norad_id": 42990,
        "name": "SKYSAT-C8",
        "group": "resource",
        "lat": 55.02939641076721,
        "lon": 108.12076144649001,
        "alt_km": 461.5028508159385,
        "timestamp": "2025-12-14T20:40:31.425422+00:00",
        "meta_object_name": "SKYSAT-C8",
        "meta_object_id": "2017-068D",
        "meta_epoch": "2025-12-14T07:54:01.539936",
        "meta_mean_motion": 15.32967524,
        "meta_eccentricity": 0.0001497,
        "meta_inclination": 97.4275,
        "meta_ra_of_asc_node": 118.3358,
        "meta_arg_of_pericenter": 341.2661,
        "meta_mean_anomaly": 18.8525,
        "meta_ephemeris_type": 0,
        "meta_classification_type": "U",
        "meta_norad_cat_id": 42990,
        "meta_element_set_no": 999,
        "meta_rev_at_epoch": 45395,
        "meta_bstar": 0.00041887786,
        "meta_mean_motion_dot": 0.00013269,
        "meta_mean_motion_ddot": 0,
        "tle_line1": "1 42990U 17068D   25348.32918449  .00013269  00000+0  41888-3 0  9990",
        "tle_line2": "2 42990  97.4275 118.3358 0001497 341.2661  18.8525 15.32967524453952"
      },
      "geometry": {
        "type": "Point",
        "coordinates": [
          108.12076144649001,
          55.02939641076721
        ]
      }
    },
    {
      "type": "Feature",
      "properties": {
        "norad_id": 42991,
        "name": "SKYSAT-C7",
        "group": "resource",
        "lat": -81.83633412622824,
        "lon": -125.52244531068612,
        "alt_km": 480.2374167456892,
        "timestamp": "2025-12-14T20:40:31.425433+00:00",
        "meta_object_name": "SKYSAT-C7",
        "meta_object_id": "2017-068E",
        "meta_epoch": "2025-12-14T08:32:41.774784",
        "meta_mean_motion": 15.32371462,
        "meta_eccentricity": 0.00075719,
        "meta_inclination": 97.4281,
        "meta_ra_of_asc_node": 119.4027,
        "meta_arg_of_pericenter": 51.8914,
        "meta_mean_anomaly": 308.3009,
        "meta_ephemeris_type": 0,
        "meta_classification_type": "U",
        "meta_norad_cat_id": 42991,
        "meta_element_set_no": 999,
        "meta_rev_at_epoch": 45402,
        "meta_bstar": 0.00038722005,
        "meta_mean_motion_dot": 0.0001204,
        "meta_mean_motion_ddot": 0,
        "tle_line1": "1 42991U 17068E   25348.35603906  .00012040  00000+0  38722-3 0  9992",
        "tle_line2": "2 42991  97.4281 119.4027 0007571  51.8914 308.3009 15.32371462454022"
      },
      "geometry": {
        "type": "Point",
        "coordinates": [
          -125.52244531068612,
          -81.83633412622824
        ]
      }
    },
    {
      "type": "Feature",
      "properties": {
        "norad_id": 42992,
        "name": "SKYSAT-C6",
        "group": "resource",
        "lat": 16.875817673091685,
        "lon": 118.07720441740445,
        "alt_km": 470.04306276684383,
        "timestamp": "2025-12-14T20:40:31.425443+00:00",
        "meta_object_name": "SKYSAT-C6",
        "meta_object_id": "2017-068F",
        "meta_epoch": "2025-12-14T08:03:24.521472",
        "meta_mean_motion": 15.31531976,
        "meta_eccentricity": 0.00051445,
        "meta_inclination": 97.4316,
        "meta_ra_of_asc_node": 119.8195,
        "meta_arg_of_pericenter": 77.8804,
        "meta_mean_anomaly": 282.3014,
        "meta_ephemeris_type": 0,
        "meta_classification_type": "U",
        "meta_norad_cat_id": 42992,
        "meta_element_set_no": 999,
        "meta_rev_at_epoch": 45400,
        "meta_bstar": 0.00039035706,
        "meta_mean_motion_dot": 0.00011818,
        "meta_mean_motion_ddot": 0,
        "tle_line1": "1 42992U 17068F   25348.33570048  .00011818  00000+0  39036-3 0  9992",
        "tle_line2": "2 42992  97.4316 119.8195 0005144  77.8804 282.3014 15.31531976454004"
      },
      "geometry": {
        "type": "Point",
        "coordinates": [
          118.07720441740445,
          16.875817673091685
        ]
      }
    },
    {
      "type": "Feature",
      "properties": {
        "norad_id": 43111,
        "name": "CARTOSAT-2F",
        "group": "resource",
        "lat": 29.961989684146705,
        "lon": 42.14957664618282,
        "alt_km": 506.7601701384365,
        "timestamp": "2025-12-14T20:40:31.425453+00:00",
        "meta_object_name": "CARTOSAT-2F",
        "meta_object_id": "2018-004A",
        "meta_epoch": "2025-12-14T07:53:49.945920",
        "meta_mean_motion": 15.19296067,
        "meta_eccentricity": 0.00011397,
        "meta_inclination": 97.4319,
        "meta_ra_of_asc_node": 45.9412,
        "meta_arg_of_pericenter": 140.878,
        "meta_mean_anomaly": 219.2537,
        "meta_ephemeris_type": 0,
        "meta_classification_type": "U",
        "meta_norad_cat_id": 43111,
        "meta_element_set_no": 999,
        "meta_rev_at_epoch": 43926,
        "meta_bstar": 0.00021489503,
        "meta_mean_motion_dot": 4.467e-05,
        "meta_mean_motion_ddot": 0,
        "tle_line1": "1 43111U 18004A   25348.32905030  .00004467  00000+0  21490-3 0  9996",
        "tle_line2": "2 43111  97.4319  45.9412 0001139 140.8780 219.2537 15.19296067439261"
      },
      "geometry": {
        "type": "Point",
        "coordinates": [
          42.14957664618282,
          29.961989684146705
        ]
      }
    },
    {
      "type": "Feature",
      "properties": {
        "norad_id": 43259,
        "name": "GAOFEN-1 02",
        "group": "resource",
        "lat": -9.929969322314161,
        "lon": -134.77361584789762,
        "alt_km": 643.6169507144205,
        "timestamp": "2025-12-14T20:40:31.425463+00:00",
        "meta_object_name": "GAOFEN-1 02",
        "meta_object_id": "2018-031A",
        "meta_epoch": "2025-12-14T08:25:55.578144",
        "meta_mean_motion": 14.76423211,
        "meta_eccentricity": 0.0001836,
        "meta_inclination": 98.0806,
        "meta_ra_of_asc_node": 46.1413,
        "meta_arg_of_pericenter": 210.1382,
        "meta_mean_anomaly": 149.9722,
        "meta_ephemeris_type": 0,
        "meta_classification_type": "U",
        "meta_norad_cat_id": 43259,
        "meta_element_set_no": 999,
        "meta_rev_at_epoch": 41542,
        "meta_bstar": 0.00029399536,
        "meta_mean_motion_dot": 1.992e-05,
        "meta_mean_motion_ddot": 0,
        "tle_line1": "1 43259U 18031A   25348.35133771  .00001992  00000+0  29400-3 0  9996",
        "tle_line2": "2 43259  98.0806  46.1413 0001836 210.1382 149.9722 14.76423211415421"
      },
      "geometry": {
        "type": "Point",
        "coordinates": [
          -134.77361584789762,
          -9.929969322314161
        ]
      }
    }
  ]
}